OrganisationURI,OrganisationLabel,SiteReference,PreviouslyPartOf,SiteNameAddress,SiteplanURL,CoordinateReferenceSystem,GeoX,GeoY,Hectares,OwnershipStatus,Deliverable - mandatory if yes,PlanningStatus,PermissionType - mandatory if ‘ PlanningStatus’ field contains the value ‘permissioned’.,PermissionDate -  - mandatory if ‘ PlanningStatus’ field contains the value ‘permissioned’.,PlanningHistory,ProposedForPIP - mandatory if yes,MinNetDwellings,DevelopmentDescription - mandatory where relevant,NonHousingDevelopment - mandatory where relevant,Part2 - mandatory where relevant,NetDwellingsRangeFrom - mandatory where relevant,NetDwellingsRangeTo - mandatory where relevant,Hazardous Substances - mandatory where relevant,SiteInformation - mandatory where relevant,Notes,FirstAddedDate,LastUpdatedDate,X,Y
http://opendatacommunities.org/id/district-council/wycombe,Wycombe District Council,HABBEY304,,"6 Easton Street, High Wycombe, HP11 1NJ",https://mywycombe.wycombe.gov.uk/mywycombe.aspx?MapSource=Wycombe/AllMaps&StartEasting=486794.0&StartNorthing=192928.92&StartZoom=300&o=1&Layers=brownfield&ZoomPin=1,ETRS89,-0.747469,51.6284,0.04,not owned by a public authority,yes,permissioned,Full planning permission,2018-06-02,,,5,Change of use of existing building (use class A2) to residential (use class C3) comprising 4 x 1 bed and 1 x 2 bed flats,,,,,,,17/05813/FUL,,,486794.0,192928.92
http://opendatacommunities.org/id/district-council/wycombe,Wycombe District Council,HABBEY322,,"89 - 90 Easton Street, High Wycombe, HP11 1LT",https://mywycombe.wycombe.gov.uk/mywycombe.aspx?MapSource=Wycombe/AllMaps&StartEasting=486785.78&StartNorthing=192868.61&StartZoom=300&o=1&Layers=brownfield&ZoomPin=1,ETRS89,-0.747603,51.6279,0.06,not owned by a public authority,yes,permissioned,Full planning permission,2017-05-24,,,10,"Retention of office use at ground floor and raising of roof to rear element of building, conversion of the upper floors to provide 10 x 1 bed flats with associated parking and landscaping (alternative scheme to pp 16/07844/FUL)",,,,,,,17/07396/FUL,,,486785.78,192868.61
http://opendatacommunities.org/id/district-council/wycombe,Wycombe District Council,HABBEY323,,"30 & 30a Marlow Road, High Wycombe, HP11 1TB",https://mywycombe.wycombe.gov.uk/mywycombe.aspx?MapSource=Wycombe/AllMaps&StartEasting=485530.735&StartNorthing=191744.725&StartZoom=300&o=1&Layers=brownfield&ZoomPin=1,ETRS89,-0.766004,51.618,0.08,not owned by a public authority,yes,permissioned,Full planning permission,2017-06-01,,,7,"Demolition of existing buildings and erection of single block comprising 7 x 1 bed and 2 x 2 bed apartments with internal cycle stores, bin stores, parking and associated landscaping",,,,,,,17/05169/FUL,,,485530.73,191744.73
http://opendatacommunities.org/id/district-council/wycombe,Wycombe District Council,HABBEY331,,"Aria House, 80 Oxford Road, High Wycombe, HP11 2DX",https://mywycombe.wycombe.gov.uk/mywycombe.aspx?MapSource=Wycombe/AllMaps&StartEasting=486087.23&StartNorthing=193415.731&StartZoom=300&o=1&Layers=brownfield&ZoomPin=1,ETRS89,-0.757558,51.6329,0.42,not owned by a public authority,yes,permissioned,Full planning permission,2017-08-14,,,72,"Prior notification application (Part 3, Class O) for change of use of existing building falling within Class B1(a) (offices) to Class C3 (dwellinghouses) to create 72 dwellings comprising of 62 studio flats, 8 x 1 bed units and 2 x 2 bed units).",,,,,,,17/06651/PNP30,,,486087.23,193415.73
http://opendatacommunities.org/id/district-council/wycombe,Wycombe District Council,HABBEY334,,"195b, c, d, & e Desborough Avenue, High Wycombe, HP11 2TW",https://mywycombe.wycombe.gov.uk/mywycombe.aspx?MapSource=Wycombe/AllMaps&StartEasting=485634.905&StartNorthing=192648.62&StartZoom=300&o=1&Layers=brownfield&ZoomPin=1,ETRS89,-0.764279,51.6261,0.06,not owned by a public authority,yes,permissioned,Full planning permission,2017-09-21,,,6,"Construction of part two storey, part first floor extensions with 2 x balconies to front and associated external alterations in connection with conversion of existing offices to 5 x 2 bed flats",,,,,,,17/07009/FUL,,,485634.91,192648.62
http://opendatacommunities.org/id/district-council/wycombe,Wycombe District Council,HBOURN143,,"Unit 3, Station Court, Station Road, Bourne End",https://mywycombe.wycombe.gov.uk/mywycombe.aspx?MapSource=Wycombe/AllMaps&StartEasting=489385.314&StartNorthing=187225.263&StartZoom=300&o=1&Layers=brownfield&ZoomPin=1,ETRS89,-0.711494,51.5768,0.11,not owned by a public authority,yes,permissioned,Full planning permission,2017-09-21,,,6,"Prior notification application (Part 3, Class O) for change of use of existing building falling within Class B1(a) (office) to Class C3 (dwellinghouse) to create 6 dwellings",,,,,,,17/07068/PNP30,,,489385.31,187225.26
http://opendatacommunities.org/id/district-council/wycombe,Wycombe District Council,HBOURN144,,"Land North of Comino House, Furlong Road, Bourne End",https://mywycombe.wycombe.gov.uk/mywycombe.aspx?MapSource=Wycombe/AllMaps&StartEasting=489705.595&StartNorthing=187278.875&StartZoom=300&o=1&Layers=brownfield&ZoomPin=1,ETRS89,-0.706859,51.5772,0.1,not owned by a public authority,yes,permissioned,Full planning permission,2017-10-24,,,5,"Erection of 3 storey building comprising 4 x 2 bed and 1 x 1 bed flats together with undercroft car parking, cycle parking and bin storage along with associated amenity space and landscaping",,,,,,,17/05972/FUL,,,489705.59,187278.88
http://opendatacommunities.org/id/district-council/wycombe,Wycombe District Council,HMARSE090,,"Abbey House, 28 - 30 Chapel Street, Marlow, SL7 1DD",https://mywycombe.wycombe.gov.uk/mywycombe.aspx?MapSource=Wycombe/AllMaps&StartEasting=485005.199&StartNorthing=186769.642&StartZoom=300&o=1&Layers=brownfield&ZoomPin=1,ETRS89,-0.774797,51.5733,0.03,not owned by a public authority,yes,permissioned,Full planning permission,2017-11-27,,,6,Prior notification application (Class J) for change of use of existing building falling within Class B1(a) (offices) to 2 x 1 bed and 4 x 2 bed flats falling within Class C3 (dwellinghouses).,,,,,,,13/07614/PAJ,,,485005.2,186769.64
http://opendatacommunities.org/id/district-council/wycombe,Wycombe District Council,HMARSE119,,79 - 81 High Street Marlow Buckinghamshire SL7 1AB,https://mywycombe.wycombe.gov.uk/mywycombe.aspx?MapSource=Wycombe/AllMaps&StartEasting=485053.66&StartNorthing=186369.271&StartZoom=300&o=1&Layers=brownfield&ZoomPin=1,ETRS89,-0.774195,51.5697,0.06,not owned by a public authority,yes,permissioned,Full planning permission,2017-09-22,,,7,"Erection of two storey rear extension to create enlarged retail unit at ground floor, 4 x 2-bed & 3 x 1-bed flats with undercroft parking & separate bin stores for retail and residential. Insertion of new doorway and internal staircase to listed buildin",,,,,,,16/07708/FUL,,,485053.66,186369.27
http://opendatacommunities.org/id/district-council/wycombe,Wycombe District Council,HOAKCA216,,2 Dashwood Avenue High Wycombe Buckinghamshire HP12 3DN,https://mywycombe.wycombe.gov.uk/mywycombe.aspx?MapSource=Wycombe/AllMaps&StartEasting=485363.835&StartNorthing=193446.147&StartZoom=300&o=1&Layers=brownfield&ZoomPin=1,ETRS89,-0.768,51.6333,0.06,not owned by a public authority,yes,permissioned,Full planning permission,2017-08-24,,,7,"Construction of new second floor and part ground and first floor accommodation to create 7 apartments (5 x 1 bed and 2 x 2 bed) including part change of use from retail to residential, bin and cycle storage",,,,,,,17/06506/FUL,,,485363.84,193446.15
http://opendatacommunities.org/id/district-council/wycombe,Wycombe District Council,HOAKCA219,,The Half Moon Dashwood Avenue High Wycombe Buckinghamshire HP12 3DZ,https://mywycombe.wycombe.gov.uk/mywycombe.aspx?MapSource=Wycombe/AllMaps&StartEasting=485058.365&StartNorthing=193447.02&StartZoom=300&o=1&Layers=brownfield&ZoomPin=1,ETRS89,-0.772412,51.6334,0.04,not owned by a public authority,yes,permissioned,Full planning permission,2017-12-18,,,5,"Change of use of existing Public House to 4 x 1-bed, 2 x 2-bed  self-contained flats with erection of part first floor, part two storey rear extension, first floor side extension with associated bin and cycle stores",,,,,,,17/07458/FUL,,,485058.36,193447.02
http://opendatacommunities.org/id/district-council/wycombe,Wycombe District Council,HRYEME183,,Princes Gate High Wycombe Buckinghamshire,https://mywycombe.wycombe.gov.uk/mywycombe.aspx?MapSource=Wycombe/AllMaps&StartEasting=487765.265&StartNorthing=192659.886&StartZoom=300&o=1&Layers=brownfield&ZoomPin=1,ETRS89,-0.733508,51.6259,0.05,not owned by a public authority,yes,permissioned,Full planning permission,2017-06-26,,,8,"Construction of three storey building containing 2 x 2 bed & 6 x 1 bed apartments with car parking, amenity space, bin & cycle storage and associated landscaping works",,,,,,,17/05625/FUL,,,487765.27,192659.89
http://opendatacommunities.org/id/district-council/wycombe,Wycombe District Council,HSANDS123,,232 & 232C West Wycombe Road High Wycombe Buckinghamshire HP12 3AR,https://mywycombe.wycombe.gov.uk/mywycombe.aspx?MapSource=Wycombe/AllMaps&StartEasting=484825.47&StartNorthing=194030.735&StartZoom=300&o=1&Layers=brownfield&ZoomPin=1,ETRS89,-0.775635,51.6386,0.22,not owned by a public authority,yes,permissioned,Full planning permission,2017-11-23,,,10,"Demolition of existing 2 x dwellings, 1 x outbuilding and a garage and erection of 2 x apartment buildings containing 9 x 2 bed flats and 3 x 1 bed flats with associated cycle storage, refuse storage, landscaping and parking",,,,,,,17/05948/FUL,,,484825.47,194030.73
http://opendatacommunities.org/id/district-council/wycombe,Wycombe District Council,HSANDS126,,15 Prestwood Close High Wycombe Buckinghamshire HP12 3DE,https://mywycombe.wycombe.gov.uk/mywycombe.aspx?MapSource=Wycombe/AllMaps&StartEasting=484712.582&StartNorthing=193559.13&StartZoom=300&o=1&Layers=brownfield&ZoomPin=1,ETRS89,-0.77738,51.6344,0.06,not owned by a public authority,yes,permissioned,Full planning permission,2018-03-26,,,5,Demolition of existing dwelling and construction of 5 x 2 bed and 1 x studio flats with associated bin and cycle stores and parking,,,,,,,17/07317/FUL,,,484712.58,193559.13
http://opendatacommunities.org/id/district-council/wycombe,Wycombe District Council,HSTOKE150,,Axis40 Oxford Road Stokenchurch Buckinghamshire HP14 3SX,https://mywycombe.wycombe.gov.uk/mywycombe.aspx?MapSource=Wycombe/AllMaps&StartEasting=475520.68&StartNorthing=196366.144&StartZoom=300&o=1&Layers=brownfield&ZoomPin=1,ETRS89,-0.909563,51.661,0.48,not owned by a public authority,yes,permissioned,Full planning permission,2017-11-24,,,40,"Prior notification application (Part 3, Class O) for change of use of existing building falling within Class B1(a) (offices) to Class C3 (dwellinghouses) to create 40 x 1 bed apartments",,,,,,,17/07762/PNP3O,,,475520.68,196366.14
http://opendatacommunities.org/id/district-council/wycombe,Wycombe District Council,HTERAH209,,133 Amersham Road High Wycombe Buckinghamshire HP13 5AD,https://mywycombe.wycombe.gov.uk/mywycombe.aspx?MapSource=Wycombe/AllMaps&StartEasting=487727.372&StartNorthing=194637.814&StartZoom=300&o=1&Layers=brownfield&ZoomPin=1,ETRS89,-0.73356,51.6437,0.11,not owned by a public authority,yes,permissioned,Full planning permission,2017-08-23,,,6,"Erection of 2 storey rear extension to provide 2 x 2 bed flats, sub division of existing 3 bed flat at first floor level to provide 1 x 2 bed flat & 1 x 1 bed flat, car parking and amenity space provision",,,,,,,15/06681/FUL,,,487727.37,194637.81
http://opendatacommunities.org/id/district-council/wycombe,Wycombe District Council,HTERAH234,,The Priory Centre 11 Priory Road High Wycombe Buckinghamshire HP13 6SL,https://mywycombe.wycombe.gov.uk/mywycombe.aspx?MapSource=Wycombe/AllMaps&StartEasting=486600.103&StartNorthing=193378.304&StartZoom=300&o=1&Layers=brownfield&ZoomPin=1,ETRS89,-0.750159,51.6325,0.06,not owned by a public authority,yes,permissioned,Full planning permission,2017-04-05,,,5,"Construction of part two storey/part single storey side extension & single storey lower ground rear extension with associated alterations in connection with conversion to 3 x 1 bed and 2 x 2 bed flats, new access off Priory Avenue to new parking area an",,,,,,,16/08332/FUL,,,486600.1,193378.3
http://opendatacommunities.org/id/district-council/wycombe,Wycombe District Council,HTERAH240,,10 - 12 Coningsby Road High Wycombe Buckinghamshire HP13 5NX,https://mywycombe.wycombe.gov.uk/mywycombe.aspx?MapSource=Wycombe/AllMaps&StartEasting=486689.02&StartNorthing=193970.599&StartZoom=300&o=1&Layers=brownfield&ZoomPin=1,ETRS89,-0.748728,51.6378,0.18,not owned by a public authority,yes,permissioned,Full planning permission,2017-10-11,,,8,"Demolition of existing dwellings and construction of two blocks comprising 8 x 2 bed and 2 x 1 bed flats with associated parking, bin/cycle storage and landscaping",,,,,,,16/08508/FUL,,,486689.02,193970.6
http://opendatacommunities.org/id/district-council/wycombe,Wycombe District Council,HTHRIS175,,8 - 10 Wellington Avenue Princes Risborough Buckinghamshire HP27 9HY,https://mywycombe.wycombe.gov.uk/mywycombe.aspx?MapSource=Wycombe/AllMaps&StartEasting=480872.61&StartNorthing=203937.43&StartZoom=300&o=1&Layers=brownfield&ZoomPin=1,ETRS89,-0.830451,51.7283,0.22,not owned by a public authority,yes,permissioned,Outline planning permission,2018-02-15,,,8,Outline application (including details of access and layout) for demolition of existing buildings and erection of 9 x 2 bed apartments and 1 no 2 bed bungalow with associated external works and new access,,,,,,,17/07148/OUT,,,480872.61,203937.43
http://opendatacommunities.org/id/district-council/wycombe,Wycombe District Council,HTHWOO101,,35 The Green Wooburn Green Buckinghamshire HP10 0EU,https://mywycombe.wycombe.gov.uk/mywycombe.aspx?MapSource=Wycombe/AllMaps&StartEasting=491229.965&StartNorthing=188420.282&StartZoom=300&o=1&Layers=brownfield&ZoomPin=1,ETRS89,-0.684571,51.5872,0.08,not owned by a public authority,yes,permissioned,Full planning permission,2017-02-21,,,6,Demolition of the existing dwelling and the erection of a terrace of three two-storey cottages and a separate building comprising four one-bedroom apartments together with parking and amenity space,,,,,,,16/07355/FUL,,,491229.97,188420.28
http://opendatacommunities.org/id/district-council/wycombe,Wycombe District Council,HTYLER152,,Oakingham House Kingsmead Business Park Frederick Place Loudwater Buckinghamshire HP11 1JU,https://mywycombe.wycombe.gov.uk/mywycombe.aspx?MapSource=Wycombe/AllMaps&StartEasting=489843.14&StartNorthing=191124.675&StartZoom=300&o=1&Layers=brownfield&ZoomPin=1,ETRS89,-0.703891,51.6117,0.41,not owned by a public authority,yes,permissioned,Full planning permission,2017-09-21,,,20,Prior notification application (Part 3 Class O) for change of use of existing building falling within Class B1(a) (Offices) to Class C3 (Dwellinghouses) to create 14 x 1-bed & 6 x 2-bed flats (20 in total),,,,,,,17/07011/PNP3O,,,489843.14,191124.67
http://opendatacommunities.org/id/district-council/wycombe,Wycombe District Council,HTYLER153,,Attobus Treadaway Hill Loudwater Buckinghamshire HP10 9QL,https://mywycombe.wycombe.gov.uk/mywycombe.aspx?MapSource=Wycombe/AllMaps&StartEasting=490068.975&StartNorthing=190418.685&StartZoom=300&o=1&Layers=brownfield&ZoomPin=1,ETRS89,-0.700812,51.6054,0.25,not owned by a public authority,yes,permissioned,Full planning permission,2017-11-24,,,27,"Prior notification application (Part 3, Class O) for change of use of existing building falling within Class B1(a) (offices) to Class C3 (dwellinghouses) to create 27 apartments",,,,,,,17/07721/PNP3O,,,490068.97,190418.69
http://opendatacommunities.org/id/district-council/wycombe,Wycombe District Council,SBE0050,,"Windrush House, Bourne End",https://mywycombe.wycombe.gov.uk/mywycombe.aspx?MapSource=Wycombe/AllMaps&StartEasting=489451.7&StartNorthing=187862.575&StartZoom=300&o=1&Layers=brownfield&ZoomPin=1,ETRS89,-0.710374,51.5825,0.15,not owned by a public authority,yes,not permissioned,,,,,8,,,,,,,,,,,489451.7,187862.58
http://opendatacommunities.org/id/district-council/wycombe,Wycombe District Council,SHW0020,,"Dashwood Avenue, High Wycombe",https://mywycombe.wycombe.gov.uk/mywycombe.aspx?MapSource=Wycombe/AllMaps&StartEasting=485098.225&StartNorthing=193501.722&StartZoom=300&o=1&Layers=brownfield&ZoomPin=1,ETRS89,-0.771823,51.6338,0.9,not owned by a public authority,,not permissioned,,,,,70,,,,,,,,,,,485098.22,193501.72
http://opendatacommunities.org/id/district-council/wycombe,Wycombe District Council,SHW0067,,46 West Wycombe Road High Wycombe Buckinghamshire HP11 2LW,https://mywycombe.wycombe.gov.uk/mywycombe.aspx?MapSource=Wycombe/AllMaps&StartEasting=485868.1&StartNorthing=193526.89&StartZoom=300&o=1&Layers=brownfield&ZoomPin=1,ETRS89,-0.760696,51.634,0.08,not owned by a public authority,yes,permissioned,Full planning permission,2016-07-04,,,13,"Demolition of 46 West Wycombe Road, erection of a four storey block of 14 x 1 bed apartments, bin & cycle stores.",,,,,,,15/06043/FUL,,,485868.1,193526.89
http://opendatacommunities.org/id/district-council/wycombe,Wycombe District Council,SHW0121,,207 Hughenden Road High Wycombe Buckinghamshire HP13 5PL,https://mywycombe.wycombe.gov.uk/mywycombe.aspx?MapSource=Wycombe/AllMaps&StartEasting=486562.875&StartNorthing=194278.04&StartZoom=300&o=1&Layers=brownfield&ZoomPin=1,ETRS89,-0.750474,51.6406,0.11,not owned by a public authority,yes,permissioned,Full planning permission,2013-07-09,,,5,Conversion of existing dwelling into 2 x 2 bed flats and erection of two storey attached unit comprising 4 x 1 bed flats with associated parking,,,,,,,10/07474/FUL,,,486562.88,194278.04
http://opendatacommunities.org/id/district-council/wycombe,Wycombe District Council,SHW0210,,34 Dashwood Avenue High Wycombe Buckinghamshire HP12 3DX,https://mywycombe.wycombe.gov.uk/mywycombe.aspx?MapSource=Wycombe/AllMaps&StartEasting=485229.691&StartNorthing=193460.123&StartZoom=300&o=1&Layers=brownfield&ZoomPin=1,ETRS89,-0.769934,51.6335,0.02,not owned by a public authority,,not permissioned,,,,,5,,,,,,,,,,,485229.69,193460.12
http://opendatacommunities.org/id/district-council/wycombe,Wycombe District Council,SHW0262,,209-211 West Wycombe Road High Wycombe Buckinghamshire HP12 3AW,https://mywycombe.wycombe.gov.uk/mywycombe.aspx?MapSource=Wycombe/AllMaps&StartEasting=484989.36&StartNorthing=193871.555&StartZoom=300&o=1&Layers=brownfield&ZoomPin=1,ETRS89,-0.773306,51.6372,0.14,not owned by a public authority,yes,permissioned,Full planning permission,2014-05-23,,,10,Construction of two storey rear extension including lower ground level to both properties and conversion of existing pair of semi detached dwellings to form 12 x 1 bed flats,,,,,,,"16/07637/FUL, 14/05432/FUL",,,484989.36,193871.55
http://opendatacommunities.org/id/district-council/wycombe,Wycombe District Council,SHW0263,,193-197 West Wycombe Road High Wycombe Buckinghamshire HP12 3AW,https://mywycombe.wycombe.gov.uk/mywycombe.aspx?MapSource=Wycombe/AllMaps&StartEasting=485089.15&StartNorthing=193833.58&StartZoom=300&o=1&Layers=brownfield&ZoomPin=1,ETRS89,-0.771874,51.6368,0.19,not owned by a public authority,yes,permissioned,Full planning permission,2016-05-09,,,9,Demolition of No. 195 and 197 West Wycombe Road.  Partial demolition of No.193 West Wycombe Road.  Erection of 1 block containing 11 x 2 bed apartments.,,,,,,,"16/08277/MINAMD, 16/05324/FUL",,,485089.15,193833.58
http://opendatacommunities.org/id/district-council/wycombe,Wycombe District Council,SHW0322,,"Easton Street / Eastern Quarter, High Wycombe",https://mywycombe.wycombe.gov.uk/mywycombe.aspx?MapSource=Wycombe/AllMaps&StartEasting=486973.3&StartNorthing=192920.825&StartZoom=300&o=1&Layers=brownfield&ZoomPin=1,ETRS89,-0.744881,51.6283,3.21,owned by a public authority,yes,not permissioned,,,,,137,Allocated in the Delivery and Site Allocations Document,,,,,,,,,,486973.3,192920.83
http://opendatacommunities.org/id/district-council/wycombe,Wycombe District Council,SHW0332,,"Duke Street, High Wycombe",https://mywycombe.wycombe.gov.uk/mywycombe.aspx?MapSource=Wycombe/AllMaps&StartEasting=487135.125&StartNorthing=193012.501&StartZoom=300&o=1&Layers=brownfield&ZoomPin=1,ETRS89,-0.742521,51.6291,0.68,owned by a public authority,,not permissioned,,,,,90,,,,,,,,Allocated in the Delivery and Site Allocations document.,,,487135.13,193012.5
http://opendatacommunities.org/id/district-council/wycombe,Wycombe District Council,SHW0334,,"Land forming part of the former Green Street County First School site, Desborough Street, High Wycombe",https://mywycombe.wycombe.gov.uk/mywycombe.aspx?MapSource=Wycombe/AllMaps&StartEasting=485559.65&StartNorthing=193385.275&StartZoom=300&o=1&Layers=brownfield&ZoomPin=1,ETRS89,-0.765186,51.6327,0.55,owned by a public authority,,not permissioned,,,,,11,,,,,,,,Allocated in the Delivery and Site Allocations document.,,,485559.65,193385.27
http://opendatacommunities.org/id/district-council/wycombe,Wycombe District Council,SHW0335,,"Needham Bowl, Leigh Street",https://mywycombe.wycombe.gov.uk/mywycombe.aspx?MapSource=Wycombe/AllMaps&StartEasting=485645.585&StartNorthing=193278.135&StartZoom=300&o=1&Layers=brownfield&ZoomPin=1,ETRS89,-0.763971,51.6318,0.33,not owned by a public authority,yes,permissioned,Full planning permission,2012-10-29,,,77,"Demolition of existing former factory building, construction of 74 residential units comprising 1, 2 and 3  bedroom flats, and 7 B1 units, landscaping, underground parking",343m2 B1c Light Industrial development,,,,,,15/05594/FUL,,,485645.59,193278.14
http://opendatacommunities.org/id/district-council/wycombe,Wycombe District Council,SHW0339,,"Collins House and 32 Bridge St, Corner of Bridge St/Desborough Rd",https://mywycombe.wycombe.gov.uk/mywycombe.aspx?MapSource=Wycombe/AllMaps&StartEasting=486075.755&StartNorthing=193172.39&StartZoom=300&o=1&Layers=brownfield&ZoomPin=1,ETRS89,-0.757783,51.6307,0.18,owned by a public authority,yes,not permissioned,,,,,45,,,,,,,,Allocated in the Delivery and Site Allocations document.,,,486075.76,193172.39
http://opendatacommunities.org/id/district-council/wycombe,Wycombe District Council,SHW0400,,"Delafield Heights South, Longland Way / Pettifer Way, previously known as Flats off Chairborough Road",https://mywycombe.wycombe.gov.uk/mywycombe.aspx?MapSource=Wycombe/AllMaps&StartEasting=484731.15&StartNorthing=192372.572&StartZoom=300&o=1&Layers=brownfield&ZoomPin=1,ETRS89,-0.777399,51.6238,0.7,not owned by a public authority,yes,not permissioned,,,,,40,,,,,,,,,,,484731.15,192372.57
http://opendatacommunities.org/id/district-council/wycombe,Wycombe District Council,SHW0402,,"Frank Hudson Furniture Factory, Rosebery Avenue, High Wycombe",https://mywycombe.wycombe.gov.uk/mywycombe.aspx?MapSource=Wycombe/AllMaps&StartEasting=488095.865&StartNorthing=192410.2&StartZoom=300&o=1&Layers=brownfield&ZoomPin=1,ETRS89,-0.728796,51.6236,0.11,not owned by a public authority,yes,not permissioned,,,,,11,,,,,,,,,,,488095.86,192410.2
http://opendatacommunities.org/id/district-council/wycombe,Wycombe District Council,SHW0406,,"Ogilvie Road, High Wycombe",https://mywycombe.wycombe.gov.uk/mywycombe.aspx?MapSource=Wycombe/AllMaps&StartEasting=485184.94&StartNorthing=193400.5&StartZoom=300&o=1&Layers=brownfield&ZoomPin=1,ETRS89,-0.770595,51.6329,0.21,not owned by a public authority,,not permissioned,,,,,9,,,,,,,,,,,485184.94,193400.5
http://opendatacommunities.org/id/district-council/wycombe,Wycombe District Council,SHW0419,,"JC and MP Smith, Princes Gate (also known as Ricketts road, Ryedale), High Wycombe, HP13 7AB",https://mywycombe.wycombe.gov.uk/mywycombe.aspx?MapSource=Wycombe/AllMaps&StartEasting=487754.704&StartNorthing=192618.725&StartZoom=300&o=1&Layers=brownfield&ZoomPin=1,ETRS89,-0.733671,51.6255,0.16,not owned by a public authority,yes,permissioned,Full planning permission,2016-12-12,,,32,"Demolition of existing building and construction of 32 x 2 bedroom apartments, alteration to the existing access, landscaping and car parking",,,,,,,15/06660/FUL. Resolution to permit.,,,487754.7,192618.73
http://opendatacommunities.org/id/district-council/wycombe,Wycombe District Council,SHW0421,,"Netley Works, 89 Queens Road, High Wycombe",https://mywycombe.wycombe.gov.uk/mywycombe.aspx?MapSource=Wycombe/AllMaps&StartEasting=487605.86&StartNorthing=192684.315&StartZoom=300&o=1&Layers=brownfield&ZoomPin=1,ETRS89,-0.735804,51.6261,0.19,not owned by a public authority,,not permissioned,,,,,11,,,,,,,,,,,487605.86,192684.32
http://opendatacommunities.org/id/district-council/wycombe,Wycombe District Council,SHW0432,,"Kitchener Works, Kitchener Road, adjacent to Smewin Court, High Wycombe",https://mywycombe.wycombe.gov.uk/mywycombe.aspx?MapSource=Wycombe/AllMaps&StartEasting=485570.535&StartNorthing=193100.88&StartZoom=300&o=1&Layers=brownfield&ZoomPin=1,ETRS89,-0.765098,51.6302,0.24,not owned by a public authority,yes,permissioned,Full planning permission,2016-08-01,,,14,"Demolition of existing factory building and erection of two, 2.5 storey residential blocks comprising of 14 x 2 bed flats with associated parking and landscaping.",,,,,,,16/05718/FUL,,,485570.53,193100.88
http://opendatacommunities.org/id/district-council/wycombe,Wycombe District Council,SHW0436,,"Garages between Chiltern Avenue and Rutland Avenue, High Wycombe",https://mywycombe.wycombe.gov.uk/mywycombe.aspx?MapSource=Wycombe/AllMaps&StartEasting=484511.575&StartNorthing=192395.63&StartZoom=300&o=1&Layers=brownfield&ZoomPin=1,ETRS89,-0.780564,51.624,0.39,not owned by a public authority,,not permissioned,,,,,10,,,,,,,,,,,484511.58,192395.63
http://opendatacommunities.org/id/district-council/wycombe,Wycombe District Council,SHW0440,,"Brook Street, High Wycombe",https://mywycombe.wycombe.gov.uk/mywycombe.aspx?MapSource=Wycombe/AllMaps&StartEasting=486026.65&StartNorthing=193328.925&StartZoom=300&o=1&Layers=brownfield&ZoomPin=1,ETRS89,-0.758454,51.6322,0.19,owned by a public authority,,not permissioned,,,,,10,,,,,,,,Allocated in the Delivery and Site Allocations document.,,,486026.65,193328.92
http://opendatacommunities.org/id/district-council/wycombe,Wycombe District Council,SHW0463,,"Corner of Bridge Street/Oxford Road, High Wycombe",https://mywycombe.wycombe.gov.uk/mywycombe.aspx?MapSource=Wycombe/AllMaps&StartEasting=486140.212&StartNorthing=193305.32&StartZoom=300&o=1&Layers=brownfield&ZoomPin=1,ETRS89,-0.75682,51.6319,0.51,not owned by a public authority,,not permissioned,,,,,7,,,,,,,,Allocated in the Delivery and Site Allocations document.,,,486140.21,193305.32
http://opendatacommunities.org/id/district-council/wycombe,Wycombe District Council,SHW0466,,"Garages at Tyzack Road, High Wycombe",https://mywycombe.wycombe.gov.uk/mywycombe.aspx?MapSource=Wycombe/AllMaps&StartEasting=488538.125&StartNorthing=194424.95&StartZoom=300&o=1&Layers=brownfield&ZoomPin=1,ETRS89,-0.7219,51.6416,0.25,not owned by a public authority,,not permissioned,,,,,6,,,,,,,,,,,488538.13,194424.95
http://opendatacommunities.org/id/district-council/wycombe,Wycombe District Council,SHW0503,,Land Adjacent  23 Easton Street High Wycombe Buckinghamshire HP11 1NJ,https://mywycombe.wycombe.gov.uk/mywycombe.aspx?MapSource=Wycombe/AllMaps&StartEasting=486945.395&StartNorthing=192890.125&StartZoom=300&o=1&Layers=brownfield&ZoomPin=1,ETRS89,-0.745292,51.6281,0.12,not owned by a public authority,yes,permissioned,Full planning permission,2015-04-27,,,9,Redevelopment of existing BT Car Park with a 3-storey office building along Easton Street and erection of 14 x 2 bed flats in one block with associated bin/cycle storage along Abbey Place (alternative scheme to pp 14/07141/FUL),,,,,,,15/05700/FUL,,,486945.4,192890.13
http://opendatacommunities.org/id/district-council/wycombe,Wycombe District Council,SHW0524,,"Remainder of Leigh Street employment area, Desborough road, High Wycombe",https://mywycombe.wycombe.gov.uk/mywycombe.aspx?MapSource=Wycombe/AllMaps&StartEasting=485602.575&StartNorthing=193231.825&StartZoom=300&o=1&Layers=brownfield&ZoomPin=1,ETRS89,-0.764604,51.6313,1.23,not owned by a public authority,,not permissioned,,,,,228,,,,,,,,,,,485602.58,193231.83
http://opendatacommunities.org/id/district-council/wycombe,Wycombe District Council,SHW0526,,"Garages at Havenfield Road, High Wycombe, HP12 4ST",https://mywycombe.wycombe.gov.uk/mywycombe.aspx?MapSource=Wycombe/AllMaps&StartEasting=483798.375&StartNorthing=191770.125&StartZoom=300&o=1&Layers=brownfield&ZoomPin=1,ETRS89,-0.791014,51.6185,0.03,not owned by a public authority,,not permissioned,,,,,5,,,,,,,,,,,483798.38,191770.13
http://opendatacommunities.org/id/district-council/wycombe,Wycombe District Council,SHW0543,,"185 - 197 Gordon Road, High Wycombe, Bucks, HP13 6AP",https://mywycombe.wycombe.gov.uk/mywycombe.aspx?MapSource=Wycombe/AllMaps&StartEasting=487653.55&StartNorthing=192647.925&StartZoom=300&o=1&Layers=brownfield&ZoomPin=1,ETRS89,-0.735124,51.6258,0.08,not owned by a public authority,yes,permissioned,Full planning permission,2013-05-09,,,14,"Redevelopment of site for erection of 1 block comprising 2 x 1 bed and 12 x 2 bed apartments including bin and cycle stores, associated on site car parking and site works",,,,,,,12/07667/FUL,,,487653.55,192647.92
http://opendatacommunities.org/id/district-council/wycombe,Wycombe District Council,SHW0548,,"Victoria Pharmacy, 19 Desborough Avenue, High Wycombe",https://mywycombe.wycombe.gov.uk/mywycombe.aspx?MapSource=Wycombe/AllMaps&StartEasting=485804.73&StartNorthing=193395.551&StartZoom=300&o=1&Layers=brownfield&ZoomPin=1,ETRS89,-0.761643,51.6328,0.06,not owned by a public authority,yes,permissioned,Full planning permission,2014-02-08,,,9,"Demolition of existing retail/office premises and erection of part three/part four storey building incorporating 3 x retail units, 1 x office suite and 2 x 1-bed & 6 x 2-bed self contained flats with associated bin & cycle stores.",280m2 A1 retail and 226m2 A2 Financial and Professional Services,,,,,,"16/08119/FUL, 14/06330/FUL, 13/07187/FUL",,,485804.73,193395.55
http://opendatacommunities.org/id/district-council/wycombe,Wycombe District Council,SHW0550,,"Sunnyside and St.Johns House, 16-18 St.Johns Road, High Wycombe",https://mywycombe.wycombe.gov.uk/mywycombe.aspx?MapSource=Wycombe/AllMaps&StartEasting=489881.365&StartNorthing=193998.785&StartZoom=300&o=1&Layers=brownfield&ZoomPin=1,ETRS89,-0.702602,51.6376,0.09,not owned by a public authority,,not permissioned,,,,,5,,,,,,,,13/07334/PAJ. Has a prior notification approval for part of the site.,,,489881.36,193998.79
http://opendatacommunities.org/id/district-council/wycombe,Wycombe District Council,SHW0561,,"Notcutts Garden Centre, Clay Lane, High Wycombe",https://mywycombe.wycombe.gov.uk/mywycombe.aspx?MapSource=Wycombe/AllMaps&StartEasting=482944.9&StartNorthing=190444.89&StartZoom=300&o=1&Layers=brownfield&ZoomPin=1,ETRS89,-0.803652,51.6067,0.91,not owned by a public authority,yes,not permissioned,,,,,15,,,,,,,,,,,482944.9,190444.89
http://opendatacommunities.org/id/district-council/wycombe,Wycombe District Council,SHW0564,,"Delafield Heights North, (Longland Way / Pettifer Way, also known as Castlefield Estate, High Wycombe)",https://mywycombe.wycombe.gov.uk/mywycombe.aspx?MapSource=Wycombe/AllMaps&StartEasting=484708.745&StartNorthing=192611.399&StartZoom=300&o=1&Layers=brownfield&ZoomPin=1,ETRS89,-0.777665,51.6259,1.74,not owned by a public authority,yes,not permissioned,,,,,32,,,,,,,,,,,484708.75,192611.4
http://opendatacommunities.org/id/district-council/wycombe,Wycombe District Council,SHW0583,,"The Nag's Head and land to rear, 63 London Road, High Wycombe,",https://mywycombe.wycombe.gov.uk/mywycombe.aspx?MapSource=Wycombe/AllMaps&StartEasting=487455.65&StartNorthing=192705.79&StartZoom=300&o=1&Layers=brownfield&ZoomPin=1,ETRS89,-0.737968,51.6263,0.1,not owned by a public authority,yes,permissioned,Full planning permission,2015-07-30,,,8,"Change of use of former Public House, construction of 3-storey rear extension and associated landscaping works to create 13 x 1 bed flats. Erection of three storey block comprising 8 x 1 bed flats.",,,,,,,"14/06780/FUL, 14/06781/FUL",,,487455.65,192705.79
http://opendatacommunities.org/id/district-council/wycombe,Wycombe District Council,SHW0584,,"1-9 Shaftesbury Street, High Wycombe, HP11 2NA",https://mywycombe.wycombe.gov.uk/mywycombe.aspx?MapSource=Wycombe/AllMaps&StartEasting=485595.625&StartNorthing=193509.475&StartZoom=300&o=1&Layers=brownfield&ZoomPin=1,ETRS89,-0.764636,51.6338,0.03,not owned by a public authority,,not permissioned,,,,,9,,,,,,,,,,,485595.63,193509.48
http://opendatacommunities.org/id/district-council/wycombe,Wycombe District Council,SHW0589,,"7-8 High Street, High Wycombe",https://mywycombe.wycombe.gov.uk/mywycombe.aspx?MapSource=Wycombe/AllMaps&StartEasting=486606.285&StartNorthing=193021.105&StartZoom=300&o=1&Layers=brownfield&ZoomPin=1,ETRS89,-0.750157,51.6293,0.06,not owned by a public authority,yes,not permissioned,,,,,14,,,,,,,,16/05538/FUL,,,486606.28,193021.11
http://opendatacommunities.org/id/district-council/wycombe,Wycombe District Council,SHW0596,,"17-19 Frogmoor, High Wycombe",https://mywycombe.wycombe.gov.uk/mywycombe.aspx?MapSource=Wycombe/AllMaps&StartEasting=486380.75&StartNorthing=193241.15&StartZoom=300&o=1&Layers=brownfield&ZoomPin=1,ETRS89,-0.753361,51.6313,0.04,not owned by a public authority,yes,not permissioned,,,,,11,,,,,,,,15/07782/FUL,,,486380.75,193241.15
http://opendatacommunities.org/id/district-council/wycombe,Wycombe District Council,SHW0597,,"The Gordon Arms, Gordon Road, High Wycombe",https://mywycombe.wycombe.gov.uk/mywycombe.aspx?MapSource=Wycombe/AllMaps&StartEasting=487616.66&StartNorthing=192830.375&StartZoom=300&o=1&Layers=brownfield&ZoomPin=1,ETRS89,-0.735611,51.6274,0.11,not owned by a public authority,,not permissioned,,,,,11,,,,,,,,14/07956/FUL,,,487616.66,192830.38
http://opendatacommunities.org/id/district-council/wycombe,Wycombe District Council,SHW0600,,"27 High Street, High Wycombe",https://mywycombe.wycombe.gov.uk/mywycombe.aspx?MapSource=Wycombe/AllMaps&StartEasting=486690.065&StartNorthing=192914.475&StartZoom=300&o=1&Layers=brownfield&ZoomPin=1,ETRS89,-0.748974,51.6283,0.01,not owned by a public authority,yes,not permissioned,,,,,5,,,,,,,,"15/07328/FUL, 16/06154/FUL",,,486690.07,192914.48
http://opendatacommunities.org/id/district-council/wycombe,Wycombe District Council,SHW0603,,"Rear of 154-156 West Wycombe Road, High Wycombe",https://mywycombe.wycombe.gov.uk/mywycombe.aspx?MapSource=Wycombe/AllMaps&StartEasting=485241.525&StartNorthing=193858.122&StartZoom=300&o=1&Layers=brownfield&ZoomPin=1,ETRS89,-0.769667,51.637,0.1,not owned by a public authority,yes,permissioned,Full planning permission,2016-02-25,,,11,"Erection of single building comprising 2 x 1 bed and 8 x 2 bed apartments and one studio flat, alteration to existing access, new parking and landscaping.",,,,,,,15/05788/FUL,,,485241.53,193858.12
http://opendatacommunities.org/id/district-council/wycombe,Wycombe District Council,SHW0651,,"Wycombe Summit, High Wycombe",https://mywycombe.wycombe.gov.uk/mywycombe.aspx?MapSource=Wycombe/AllMaps&StartEasting=487788.891&StartNorthing=191331.09&StartZoom=300&o=1&Layers=brownfield&ZoomPin=1,ETRS89,-0.733499,51.6139,3.91,not owned by a public authority,yes,permissioned,Full planning permission,2016-11-29,,,30,"Erection of 30 dwellings of private and affordable tenure (6 x 2 bed houses, 5 x 3 bed houses, 4 x 4 bed houses, 6 x 5 bed houses, and 9 x 2 bed apartments) with associated vehicle and cycle parking.",,,,,,,16/06045/FUL,,,487788.89,191331.09
http://opendatacommunities.org/id/district-council/wycombe,Wycombe District Council,SHZ0005,,"Highbury Works/Hazlemere Coach Works, Chestnut Lane, Hazlemere, High Wycombe, Bucks",https://mywycombe.wycombe.gov.uk/mywycombe.aspx?MapSource=Wycombe/AllMaps&StartEasting=489677.625&StartNorthing=196229.8&StartZoom=300&o=1&Layers=brownfield&ZoomPin=1,ETRS89,-0.704974,51.6577,0.62,not owned by a public authority,,not permissioned,,,,,14,,,,,,,,,,,489677.63,196229.8
http://opendatacommunities.org/id/district-council/wycombe,Wycombe District Council,SLW0031,,"Burleighfield House (Mayflower House), London road, Loudwater",https://mywycombe.wycombe.gov.uk/mywycombe.aspx?MapSource=Wycombe/AllMaps&StartEasting=490575.65&StartNorthing=190600.755&StartZoom=300&o=1&Layers=brownfield&ZoomPin=1,ETRS89,-0.69345,51.6069,0.09,not owned by a public authority,yes,permissioned,Full planning permission,2016-04-26,,,11,"Prior notification application (Part 3, Class O) for change of use of existing building falling within Class B1(a) (offices) to Class C3 (dwellinghouses) to create 11 x apartments.",,,,,,,16/05582/PNP3O,,,490575.65,190600.76
http://opendatacommunities.org/id/district-council/wycombe,Wycombe District Council,SMA0044,,Foxes Piece Marlow Buckinghamshire,https://mywycombe.wycombe.gov.uk/mywycombe.aspx?MapSource=Wycombe/AllMaps&StartEasting=485306.315&StartNorthing=187027.665&StartZoom=300&o=1&Layers=brownfield&ZoomPin=1,ETRS89,-0.770391,51.5756,1.57,not owned by a public authority,,not permissioned,,,,,10,,,,,,,,,,,485306.32,187027.67
http://opendatacommunities.org/id/district-council/wycombe,Wycombe District Council,SMA0100,,"Regal House, 4-6 Station Road, Marlow SL7 1NZ",https://mywycombe.wycombe.gov.uk/mywycombe.aspx?MapSource=Wycombe/AllMaps&StartEasting=485070.965&StartNorthing=186399.805&StartZoom=300&o=1&Layers=brownfield&ZoomPin=1,ETRS89,-0.773938,51.57,0.21,not owned by a public authority,yes,permissioned,Full planning permission,2014-05-12,,,12,Prior notification application (Class J) for change of use of existing building falling within Class B1(a) (offices) to Class C3 (dwellinghouses) to create 12 x 2 bed apartments,,,,,,,14/05668/PAJ,,,485070.97,186399.8
http://opendatacommunities.org/id/district-council/wycombe,Wycombe District Council,SPR0032,,Land at Princes Risborough Railway Station,https://mywycombe.wycombe.gov.uk/mywycombe.aspx?MapSource=Wycombe/AllMaps&StartEasting=480037.27&StartNorthing=202757.835&StartZoom=300&o=1&Layers=brownfield&ZoomPin=1,ETRS89,-0.842814,51.7178,2.02,not owned by a public authority,yes,not permissioned,,,,,45,,,,,,,,,,,480037.27,202757.83
http://opendatacommunities.org/id/district-council/wycombe,Wycombe District Council,SRD0008,,Coal Yard Smalldean Lane Saunderton Buckinghamshire,https://mywycombe.wycombe.gov.uk/mywycombe.aspx?MapSource=Wycombe/AllMaps&StartEasting=481509.122&StartNorthing=198086.345&StartZoom=300&o=1&Layers=brownfield&ZoomPin=1,ETRS89,-0.822603,51.6756,0.67,not owned by a public authority,yes,not permissioned,,,,,6,,,,,,,,15/08368/OUT,,,481509.12,198086.35
http://opendatacommunities.org/id/district-council/wycombe,Wycombe District Council,SRD0126,,"Former Molins Factory, Haw Lane, Saunderton, HP14 4JE",https://mywycombe.wycombe.gov.uk/mywycombe.aspx?MapSource=Wycombe/AllMaps&StartEasting=480793.05&StartNorthing=198498.405&StartZoom=300&o=1&Layers=brownfield&ZoomPin=1,ETRS89,-0.832861,51.6794,10.32,not owned by a public authority,,not permissioned,,,,,20,,,,,,,,,,,480793.05,198498.41
http://opendatacommunities.org/id/district-council/wycombe,Wycombe District Council,SRD0148,,"Uplands House Hotel, Four Ashes Road, Cryers Hill, Bucks, HP15 6LB",https://mywycombe.wycombe.gov.uk/mywycombe.aspx?MapSource=Wycombe/AllMaps&StartEasting=487385.23&StartNorthing=196177.437&StartZoom=300&o=1&Layers=brownfield&ZoomPin=1,ETRS89,-0.738119,51.6576,7.61,not owned by a public authority,yes,permissioned,Full planning permission,2016-08-26,,,59,"Demolition of former coach house block and erection of new two storey building providing 1 x 1-bed, 10 x 2-bed & 2 x 3-bed self-contained flats.",,,,,,,16/05053/FUL,,,487385.23,196177.44
http://opendatacommunities.org/id/district-council/wycombe,Wycombe District Council,SWC0012,,"Westside Fruit / The Apple Orchard, Clay Lane, Booker",https://mywycombe.wycombe.gov.uk/mywycombe.aspx?MapSource=Wycombe/AllMaps&StartEasting=483332.452&StartNorthing=190605.505&StartZoom=300&o=1&Layers=brownfield&ZoomPin=1,ETRS89,-0.798019,51.6081,0.63,not owned by a public authority,,not permissioned,,,,,11,,,,,,,,03/05990/OUT,,,483332.45,190605.51
http://opendatacommunities.org/id/district-council/wycombe,Wycombe District Council,SWC0068,,"Water Research Centre Laboratries, Medmenham",https://mywycombe.wycombe.gov.uk/mywycombe.aspx?MapSource=Wycombe/AllMaps&StartEasting=480445.826&StartNorthing=183798.555&StartZoom=300&o=1&Layers=brownfield&ZoomPin=1,ETRS89,-0.841252,51.5473,3.31,not owned by a public authority,yes,permissioned,reserved matters approval,2013-08-30,,,5,"Outline application ( including details of access, appearance, landscaping, layout and scale) for erection of three storey dwelling house and 4 staff dwellings.",,,,,,,"11/05434/OUT, 16/07321/REM",,,480445.83,183798.55
